{
"type": "FeatureCollection",
"name": "Hyderabad_Floors_7",
"crs": { "type": "name", "properties": { "name": "urn:ogc:def:crs:EPSG::32644" } },
"features": [
{"type":"Feature","properties":{"fid":4,"full_id":"w356020013","osm_id":"356020013","osm_type":"way","building":"yes","shop":null,"man_made":null,"content":null,"tourism":null,"office":null,"addr:housenumber":null,"name":"Pamidi Towers","building:levels":"6","addr:street":"sillicon valley","addr:postcode":"500081","addr:city":"Hyderabad","elev_count":0.5117115499001762,"elev_mean":575.23233473468281,"elev_min":573.87506103515625,"elev_max":576.11749267578125,"ground_z":575.23233473468281,"z_source":"Copernicus_GLO30_DSM","floor_count":6,"floor_height_m":3.0,"building_height_m":18.0,"top_z":593.23233473468281,"z_quality":"DSM_OK","base_z":575.23233473468281,"floor_z_min":575.23233473468281,"floor_z_max":578.23233473468281,"instance":0},"geometry":{"type":"MultiPolygon","coordinates":[[[[222682.356,1930919.844783111009747,0.0],[222711.288453628774732,1930934.873564005829394,0.0],[222720.851244697230868,1930916.691325609339401,0.0],[222682.356,1930896.695201829774305,0.0],[222682.356,1930919.844783111009747,0.0]]]]}},
{"type":"Feature","properties":{"fid":4,"full_id":"w356020013","osm_id":"356020013","osm_type":"way","building":"yes","shop":null,"man_made":null,"content":null,"tourism":null,"office":null,"addr:housenumber":null,"name":"Pamidi Towers","building:levels":"6","addr:street":"sillicon valley","addr:postcode":"500081","addr:city":"Hyderabad","elev_count":0.5117115499001762,"elev_mean":575.23233473468281,"elev_min":573.87506103515625,"elev_max":576.11749267578125,"ground_z":575.23233473468281,"z_source":"Copernicus_GLO30_DSM","floor_count":6,"floor_height_m":3.0,"building_height_m":18.0,"top_z":593.23233473468281,"z_quality":"DSM_OK","base_z":575.23233473468281,"floor_z_min":575.23233473468281,"floor_z_max":578.23233473468281,"instance":1},"geometry":{"type":"MultiPolygon","coordinates":[[[[222682.356,1930919.844783111009747,3.0],[222711.288453628774732,1930934.873564005829394,3.0],[222720.851244697230868,1930916.691325609339401,3.0],[222682.356,1930896.695201829774305,3.0],[222682.356,1930919.844783111009747,3.0]]]]}},
{"type":"Feature","properties":{"fid":4,"full_id":"w356020013","osm_id":"356020013","osm_type":"way","building":"yes","shop":null,"man_made":null,"content":null,"tourism":null,"office":null,"addr:housenumber":null,"name":"Pamidi Towers","building:levels":"6","addr:street":"sillicon valley","addr:postcode":"500081","addr:city":"Hyderabad","elev_count":0.5117115499001762,"elev_mean":575.23233473468281,"elev_min":573.87506103515625,"elev_max":576.11749267578125,"ground_z":575.23233473468281,"z_source":"Copernicus_GLO30_DSM","floor_count":6,"floor_height_m":3.0,"building_height_m":18.0,"top_z":593.23233473468281,"z_quality":"DSM_OK","base_z":575.23233473468281,"floor_z_min":575.23233473468281,"floor_z_max":578.23233473468281,"instance":2},"geometry":{"type":"MultiPolygon","coordinates":[[[[222682.356,1930919.844783111009747,6.0],[222711.288453628774732,1930934.873564005829394,6.0],[222720.851244697230868,1930916.691325609339401,6.0],[222682.356,1930896.695201829774305,6.0],[222682.356,1930919.844783111009747,6.0]]]]}},
{"type":"Feature","properties":{"fid":4,"full_id":"w356020013","osm_id":"356020013","osm_type":"way","building":"yes","shop":null,"man_made":null,"content":null,"tourism":null,"office":null,"addr:housenumber":null,"name":"Pamidi Towers","building:levels":"6","addr:street":"sillicon valley","addr:postcode":"500081","addr:city":"Hyderabad","elev_count":0.5117115499001762,"elev_mean":575.23233473468281,"elev_min":573.87506103515625,"elev_max":576.11749267578125,"ground_z":575.23233473468281,"z_source":"Copernicus_GLO30_DSM","floor_count":6,"floor_height_m":3.0,"building_height_m":18.0,"top_z":593.23233473468281,"z_quality":"DSM_OK","base_z":575.23233473468281,"floor_z_min":575.23233473468281,"floor_z_max":578.23233473468281,"instance":3},"geometry":{"type":"MultiPolygon","coordinates":[[[[222682.356,1930919.844783111009747,9.0],[222711.288453628774732,1930934.873564005829394,9.0],[222720.851244697230868,1930916.691325609339401,9.0],[222682.356,1930896.695201829774305,9.0],[222682.356,1930919.844783111009747,9.0]]]]}},
{"type":"Feature","properties":{"fid":4,"full_id":"w356020013","osm_id":"356020013","osm_type":"way","building":"yes","shop":null,"man_made":null,"content":null,"tourism":null,"office":null,"addr:housenumber":null,"name":"Pamidi Towers","building:levels":"6","addr:street":"sillicon valley","addr:postcode":"500081","addr:city":"Hyderabad","elev_count":0.5117115499001762,"elev_mean":575.23233473468281,"elev_min":573.87506103515625,"elev_max":576.11749267578125,"ground_z":575.23233473468281,"z_source":"Copernicus_GLO30_DSM","floor_count":6,"floor_height_m":3.0,"building_height_m":18.0,"top_z":593.23233473468281,"z_quality":"DSM_OK","base_z":575.23233473468281,"floor_z_min":575.23233473468281,"floor_z_max":578.23233473468281,"instance":4},"geometry":{"type":"MultiPolygon","coordinates":[[[[222682.356,1930919.844783111009747,12.0],[222711.288453628774732,1930934.873564005829394,12.0],[222720.851244697230868,1930916.691325609339401,12.0],[222682.356,1930896.695201829774305,12.0],[222682.356,1930919.844783111009747,12.0]]]]}},
{"type":"Feature","properties":{"fid":4,"full_id":"w356020013","osm_id":"356020013","osm_type":"way","building":"yes","shop":null,"man_made":null,"content":null,"tourism":null,"office":null,"addr:housenumber":null,"name":"Pamidi Towers","building:levels":"6","addr:street":"sillicon valley","addr:postcode":"500081","addr:city":"Hyderabad","elev_count":0.5117115499001762,"elev_mean":575.23233473468281,"elev_min":573.87506103515625,"elev_max":576.11749267578125,"ground_z":575.23233473468281,"z_source":"Copernicus_GLO30_DSM","floor_count":6,"floor_height_m":3.0,"building_height_m":18.0,"top_z":593.23233473468281,"z_quality":"DSM_OK","base_z":575.23233473468281,"floor_z_min":575.23233473468281,"floor_z_max":578.23233473468281,"instance":5},"geometry":{"type":"MultiPolygon","coordinates":[[[[222682.356,1930919.844783111009747,15.0],[222711.288453628774732,1930934.873564005829394,15.0],[222720.851244697230868,1930916.691325609339401,15.0],[222682.356,1930896.695201829774305,15.0],[222682.356,1930919.844783111009747,15.0]]]]}},
{"type":"Feature","properties":{"fid":4,"full_id":"w356020013","osm_id":"356020013","osm_type":"way","building":"yes","shop":null,"man_made":null,"content":null,"tourism":null,"office":null,"addr:housenumber":null,"name":"Pamidi Towers","building:levels":"6","addr:street":"sillicon valley","addr:postcode":"500081","addr:city":"Hyderabad","elev_count":0.5117115499001762,"elev_mean":575.23233473468281,"elev_min":573.87506103515625,"elev_max":576.11749267578125,"ground_z":575.23233473468281,"z_source":"Copernicus_GLO30_DSM","floor_count":6,"floor_height_m":3.0,"building_height_m":18.0,"top_z":593.23233473468281,"z_quality":"DSM_OK","base_z":575.23233473468281,"floor_z_min":575.23233473468281,"floor_z_max":578.23233473468281,"instance":6},"geometry":{"type":"MultiPolygon","coordinates":[[[[222682.356,1930919.844783111009747,18.0],[222711.288453628774732,1930934.873564005829394,18.0],[222720.851244697230868,1930916.691325609339401,18.0],[222682.356,1930896.695201829774305,18.0],[222682.356,1930919.844783111009747,18.0]]]]}},
{"type":"Feature","properties":{"fid":10,"full_id":"w356020035","osm_id":"356020035","osm_type":"way","building":"yes","shop":null,"man_made":null,"content":null,"tourism":null,"office":null,"addr:housenumber":null,"name":"Aishwarya residency","building:levels":"5","addr:street":null,"addr:postcode":null,"addr:city":null,"elev_count":0.30476008526472737,"elev_mean":577.31622314453125,"elev_min":577.31622314453125,"elev_max":577.31622314453125,"ground_z":577.31622314453125,"z_source":"Copernicus_GLO30_DSM","floor_count":5,"floor_height_m":3.0,"building_height_m":15.0,"top_z":592.31622314453125,"z_quality":"DSM_OK","base_z":577.31622314453125,"floor_z_min":577.31622314453125,"floor_z_max":580.31622314453125,"instance":0},"geometry":{"type":"MultiPolygon","coordinates":[[[[222694.585568667273037,1931118.108844381757081,0.0],[222716.01461806113366,1931118.070572946686298,0.0],[222715.995587780198548,1931104.238721636589617,0.0],[222694.566523790766951,1931104.276991061866283,0.0],[222694.585568667273037,1931118.108844381757081,0.0]]]]}},
{"type":"Feature","properties":{"fid":10,"full_id":"w356020035","osm_id":"356020035","osm_type":"way","building":"yes","shop":null,"man_made":null,"content":null,"tourism":null,"office":null,"addr:housenumber":null,"name":"Aishwarya residency","building:levels":"5","addr:street":null,"addr:postcode":null,"addr:city":null,"elev_count":0.30476008526472737,"elev_mean":577.31622314453125,"elev_min":577.31622314453125,"elev_max":577.31622314453125,"ground_z":577.31622314453125,"z_source":"Copernicus_GLO30_DSM","floor_count":5,"floor_height_m":3.0,"building_height_m":15.0,"top_z":592.31622314453125,"z_quality":"DSM_OK","base_z":577.31622314453125,"floor_z_min":577.31622314453125,"floor_z_max":580.31622314453125,"instance":1},"geometry":{"type":"MultiPolygon","coordinates":[[[[222694.585568667273037,1931118.108844381757081,3.0],[222716.01461806113366,1931118.070572946686298,3.0],[222715.995587780198548,1931104.238721636589617,3.0],[222694.566523790766951,1931104.276991061866283,3.0],[222694.585568667273037,1931118.108844381757081,3.0]]]]}},
{"type":"Feature","properties":{"fid":10,"full_id":"w356020035","osm_id":"356020035","osm_type":"way","building":"yes","shop":null,"man_made":null,"content":null,"tourism":null,"office":null,"addr:housenumber":null,"name":"Aishwarya residency","building:levels":"5","addr:street":null,"addr:postcode":null,"addr:city":null,"elev_count":0.30476008526472737,"elev_mean":577.31622314453125,"elev_min":577.31622314453125,"elev_max":577.31622314453125,"ground_z":577.31622314453125,"z_source":"Copernicus_GLO30_DSM","floor_count":5,"floor_height_m":3.0,"building_height_m":15.0,"top_z":592.31622314453125,"z_quality":"DSM_OK","base_z":577.31622314453125,"floor_z_min":577.31622314453125,"floor_z_max":580.31622314453125,"instance":2},"geometry":{"type":"MultiPolygon","coordinates":[[[[222694.585568667273037,1931118.108844381757081,6.0],[222716.01461806113366,1931118.070572946686298,6.0],[222715.995587780198548,1931104.238721636589617,6.0],[222694.566523790766951,1931104.276991061866283,6.0],[222694.585568667273037,1931118.108844381757081,6.0]]]]}},
{"type":"Feature","properties":{"fid":10,"full_id":"w356020035","osm_id":"356020035","osm_type":"way","building":"yes","shop":null,"man_made":null,"content":null,"tourism":null,"office":null,"addr:housenumber":null,"name":"Aishwarya residency","building:levels":"5","addr:street":null,"addr:postcode":null,"addr:city":null,"elev_count":0.30476008526472737,"elev_mean":577.31622314453125,"elev_min":577.31622314453125,"elev_max":577.31622314453125,"ground_z":577.31622314453125,"z_source":"Copernicus_GLO30_DSM","floor_count":5,"floor_height_m":3.0,"building_height_m":15.0,"top_z":592.31622314453125,"z_quality":"DSM_OK","base_z":577.31622314453125,"floor_z_min":577.31622314453125,"floor_z_max":580.31622314453125,"instance":3},"geometry":{"type":"MultiPolygon","coordinates":[[[[222694.585568667273037,1931118.108844381757081,9.0],[222716.01461806113366,1931118.070572946686298,9.0],[222715.995587780198548,1931104.238721636589617,9.0],[222694.566523790766951,1931104.276991061866283,9.0],[222694.585568667273037,1931118.108844381757081,9.0]]]]}},
{"type":"Feature","properties":{"fid":10,"full_id":"w356020035","osm_id":"356020035","osm_type":"way","building":"yes","shop":null,"man_made":null,"content":null,"tourism":null,"office":null,"addr:housenumber":null,"name":"Aishwarya residency","building:levels":"5","addr:street":null,"addr:postcode":null,"addr:city":null,"elev_count":0.30476008526472737,"elev_mean":577.31622314453125,"elev_min":577.31622314453125,"elev_max":577.31622314453125,"ground_z":577.31622314453125,"z_source":"Copernicus_GLO30_DSM","floor_count":5,"floor_height_m":3.0,"building_height_m":15.0,"top_z":592.31622314453125,"z_quality":"DSM_OK","base_z":577.31622314453125,"floor_z_min":577.31622314453125,"floor_z_max":580.31622314453125,"instance":4},"geometry":{"type":"MultiPolygon","coordinates":[[[[222694.585568667273037,1931118.108844381757081,12.0],[222716.01461806113366,1931118.070572946686298,12.0],[222715.995587780198548,1931104.238721636589617,12.0],[222694.566523790766951,1931104.276991061866283,12.0],[222694.585568667273037,1931118.108844381757081,12.0]]]]}},
{"type":"Feature","properties":{"fid":10,"full_id":"w356020035","osm_id":"356020035","osm_type":"way","building":"yes","shop":null,"man_made":null,"content":null,"tourism":null,"office":null,"addr:housenumber":null,"name":"Aishwarya residency","building:levels":"5","addr:street":null,"addr:postcode":null,"addr:city":null,"elev_count":0.30476008526472737,"elev_mean":577.31622314453125,"elev_min":577.31622314453125,"elev_max":577.31622314453125,"ground_z":577.31622314453125,"z_source":"Copernicus_GLO30_DSM","floor_count":5,"floor_height_m":3.0,"building_height_m":15.0,"top_z":592.31622314453125,"z_quality":"DSM_OK","base_z":577.31622314453125,"floor_z_min":577.31622314453125,"floor_z_max":580.31622314453125,"instance":5},"geometry":{"type":"MultiPolygon","coordinates":[[[[222694.585568667273037,1931118.108844381757081,15.0],[222716.01461806113366,1931118.070572946686298,15.0],[222715.995587780198548,1931104.238721636589617,15.0],[222694.566523790766951,1931104.276991061866283,15.0],[222694.585568667273037,1931118.108844381757081,15.0]]]]}},
{"type":"Feature","properties":{"fid":20,"full_id":"w356020060","osm_id":"356020060","osm_type":"way","building":"yes","shop":null,"man_made":null,"content":null,"tourism":null,"office":null,"addr:housenumber":"220","name":null,"building:levels":"5","addr:street":"Jai Hind Gandhi Road","addr:postcode":null,"addr:city":null,"elev_count":0.26015232253220177,"elev_mean":576.27474036824322,"elev_min":575.7928466796875,"elev_max":577.31622314453125,"ground_z":576.27474036824322,"z_source":"Copernicus_GLO30_DSM","floor_count":5,"floor_height_m":3.0,"building_height_m":15.0,"top_z":591.27474036824322,"z_quality":"DSM_OK","base_z":576.27474036824322,"floor_z_min":576.27474036824322,"floor_z_max":579.27474036824322,"instance":0},"geometry":{"type":"MultiPolygon","coordinates":[[[[222695.249214429757558,1931102.11919398792088,0.0],[222715.668036989227403,1931102.050439174054191,0.0],[222715.631171962828375,1931090.023983303224668,0.0],[222695.212488693243358,1931090.103808953426778,0.0],[222695.249214429757558,1931102.11919398792088,0.0]]]]}},
{"type":"Feature","properties":{"fid":20,"full_id":"w356020060","osm_id":"356020060","osm_type":"way","building":"yes","shop":null,"man_made":null,"content":null,"tourism":null,"office":null,"addr:housenumber":"220","name":null,"building:levels":"5","addr:street":"Jai Hind Gandhi Road","addr:postcode":null,"addr:city":null,"elev_count":0.26015232253220177,"elev_mean":576.27474036824322,"elev_min":575.7928466796875,"elev_max":577.31622314453125,"ground_z":576.27474036824322,"z_source":"Copernicus_GLO30_DSM","floor_count":5,"floor_height_m":3.0,"building_height_m":15.0,"top_z":591.27474036824322,"z_quality":"DSM_OK","base_z":576.27474036824322,"floor_z_min":576.27474036824322,"floor_z_max":579.27474036824322,"instance":1},"geometry":{"type":"MultiPolygon","coordinates":[[[[222695.249214429757558,1931102.11919398792088,3.0],[222715.668036989227403,1931102.050439174054191,3.0],[222715.631171962828375,1931090.023983303224668,3.0],[222695.212488693243358,1931090.103808953426778,3.0],[222695.249214429757558,1931102.11919398792088,3.0]]]]}},
{"type":"Feature","properties":{"fid":20,"full_id":"w356020060","osm_id":"356020060","osm_type":"way","building":"yes","shop":null,"man_made":null,"content":null,"tourism":null,"office":null,"addr:housenumber":"220","name":null,"building:levels":"5","addr:street":"Jai Hind Gandhi Road","addr:postcode":null,"addr:city":null,"elev_count":0.26015232253220177,"elev_mean":576.27474036824322,"elev_min":575.7928466796875,"elev_max":577.31622314453125,"ground_z":576.27474036824322,"z_source":"Copernicus_GLO30_DSM","floor_count":5,"floor_height_m":3.0,"building_height_m":15.0,"top_z":591.27474036824322,"z_quality":"DSM_OK","base_z":576.27474036824322,"floor_z_min":576.27474036824322,"floor_z_max":579.27474036824322,"instance":2},"geometry":{"type":"MultiPolygon","coordinates":[[[[222695.249214429757558,1931102.11919398792088,6.0],[222715.668036989227403,1931102.050439174054191,6.0],[222715.631171962828375,1931090.023983303224668,6.0],[222695.212488693243358,1931090.103808953426778,6.0],[222695.249214429757558,1931102.11919398792088,6.0]]]]}},
{"type":"Feature","properties":{"fid":20,"full_id":"w356020060","osm_id":"356020060","osm_type":"way","building":"yes","shop":null,"man_made":null,"content":null,"tourism":null,"office":null,"addr:housenumber":"220","name":null,"building:levels":"5","addr:street":"Jai Hind Gandhi Road","addr:postcode":null,"addr:city":null,"elev_count":0.26015232253220177,"elev_mean":576.27474036824322,"elev_min":575.7928466796875,"elev_max":577.31622314453125,"ground_z":576.27474036824322,"z_source":"Copernicus_GLO30_DSM","floor_count":5,"floor_height_m":3.0,"building_height_m":15.0,"top_z":591.27474036824322,"z_quality":"DSM_OK","base_z":576.27474036824322,"floor_z_min":576.27474036824322,"floor_z_max":579.27474036824322,"instance":3},"geometry":{"type":"MultiPolygon","coordinates":[[[[222695.249214429757558,1931102.11919398792088,9.0],[222715.668036989227403,1931102.050439174054191,9.0],[222715.631171962828375,1931090.023983303224668,9.0],[222695.212488693243358,1931090.103808953426778,9.0],[222695.249214429757558,1931102.11919398792088,9.0]]]]}},
{"type":"Feature","properties":{"fid":20,"full_id":"w356020060","osm_id":"356020060","osm_type":"way","building":"yes","shop":null,"man_made":null,"content":null,"tourism":null,"office":null,"addr:housenumber":"220","name":null,"building:levels":"5","addr:street":"Jai Hind Gandhi Road","addr:postcode":null,"addr:city":null,"elev_count":0.26015232253220177,"elev_mean":576.27474036824322,"elev_min":575.7928466796875,"elev_max":577.31622314453125,"ground_z":576.27474036824322,"z_source":"Copernicus_GLO30_DSM","floor_count":5,"floor_height_m":3.0,"building_height_m":15.0,"top_z":591.27474036824322,"z_quality":"DSM_OK","base_z":576.27474036824322,"floor_z_min":576.27474036824322,"floor_z_max":579.27474036824322,"instance":4},"geometry":{"type":"MultiPolygon","coordinates":[[[[222695.249214429757558,1931102.11919398792088,12.0],[222715.668036989227403,1931102.050439174054191,12.0],[222715.631171962828375,1931090.023983303224668,12.0],[222695.212488693243358,1931090.103808953426778,12.0],[222695.249214429757558,1931102.11919398792088,12.0]]]]}},
{"type":"Feature","properties":{"fid":20,"full_id":"w356020060","osm_id":"356020060","osm_type":"way","building":"yes","shop":null,"man_made":null,"content":null,"tourism":null,"office":null,"addr:housenumber":"220","name":null,"building:levels":"5","addr:street":"Jai Hind Gandhi Road","addr:postcode":null,"addr:city":null,"elev_count":0.26015232253220177,"elev_mean":576.27474036824322,"elev_min":575.7928466796875,"elev_max":577.31622314453125,"ground_z":576.27474036824322,"z_source":"Copernicus_GLO30_DSM","floor_count":5,"floor_height_m":3.0,"building_height_m":15.0,"top_z":591.27474036824322,"z_quality":"DSM_OK","base_z":576.27474036824322,"floor_z_min":576.27474036824322,"floor_z_max":579.27474036824322,"instance":5},"geometry":{"type":"MultiPolygon","coordinates":[[[[222695.249214429757558,1931102.11919398792088,15.0],[222715.668036989227403,1931102.050439174054191,15.0],[222715.631171962828375,1931090.023983303224668,15.0],[222695.212488693243358,1931090.103808953426778,15.0],[222695.249214429757558,1931102.11919398792088,15.0]]]]}},
{"type":"Feature","properties":{"fid":27,"full_id":"w356020076","osm_id":"356020076","osm_type":"way","building":"yes","shop":null,"man_made":null,"content":null,"tourism":null,"office":null,"addr:housenumber":null,"name":"XENO SUMMIT","building:levels":"8","addr:street":null,"addr:postcode":null,"addr:city":null,"elev_count":0.98331324271826603,"elev_mean":396.25832360821323,"elev_min":0.0,"elev_max":571.01251220703125,"ground_z":396.25832360821323,"z_source":"Copernicus_GLO30_DSM","floor_count":8,"floor_height_m":3.0,"building_height_m":24.0,"top_z":420.25832360821323,"z_quality":"CHECK_ELEVATION","base_z":396.25832360821323,"floor_z_min":396.25832360821323,"floor_z_max":399.25832360821323,"instance":0},"geometry":{"type":"MultiPolygon","coordinates":[[[[222721.012810971646104,1930833.641098179155961,0.0],[222755.34201625053538,1930850.359555477509275,0.0],[222765.664459125837311,1930829.420482743997127,0.0],[222731.335232505225576,1930812.702004574472085,0.0],[222721.012810971646104,1930833.641098179155961,0.0]]]]}},
{"type":"Feature","properties":{"fid":27,"full_id":"w356020076","osm_id":"356020076","osm_type":"way","building":"yes","shop":null,"man_made":null,"content":null,"tourism":null,"office":null,"addr:housenumber":null,"name":"XENO SUMMIT","building:levels":"8","addr:street":null,"addr:postcode":null,"addr:city":null,"elev_count":0.98331324271826603,"elev_mean":396.25832360821323,"elev_min":0.0,"elev_max":571.01251220703125,"ground_z":396.25832360821323,"z_source":"Copernicus_GLO30_DSM","floor_count":8,"floor_height_m":3.0,"building_height_m":24.0,"top_z":420.25832360821323,"z_quality":"CHECK_ELEVATION","base_z":396.25832360821323,"floor_z_min":396.25832360821323,"floor_z_max":399.25832360821323,"instance":1},"geometry":{"type":"MultiPolygon","coordinates":[[[[222721.012810971646104,1930833.641098179155961,3.0],[222755.34201625053538,1930850.359555477509275,3.0],[222765.664459125837311,1930829.420482743997127,3.0],[222731.335232505225576,1930812.702004574472085,3.0],[222721.012810971646104,1930833.641098179155961,3.0]]]]}},
{"type":"Feature","properties":{"fid":27,"full_id":"w356020076","osm_id":"356020076","osm_type":"way","building":"yes","shop":null,"man_made":null,"content":null,"tourism":null,"office":null,"addr:housenumber":null,"name":"XENO SUMMIT","building:levels":"8","addr:street":null,"addr:postcode":null,"addr:city":null,"elev_count":0.98331324271826603,"elev_mean":396.25832360821323,"elev_min":0.0,"elev_max":571.01251220703125,"ground_z":396.25832360821323,"z_source":"Copernicus_GLO30_DSM","floor_count":8,"floor_height_m":3.0,"building_height_m":24.0,"top_z":420.25832360821323,"z_quality":"CHECK_ELEVATION","base_z":396.25832360821323,"floor_z_min":396.25832360821323,"floor_z_max":399.25832360821323,"instance":2},"geometry":{"type":"MultiPolygon","coordinates":[[[[222721.012810971646104,1930833.641098179155961,6.0],[222755.34201625053538,1930850.359555477509275,6.0],[222765.664459125837311,1930829.420482743997127,6.0],[222731.335232505225576,1930812.702004574472085,6.0],[222721.012810971646104,1930833.641098179155961,6.0]]]]}},
{"type":"Feature","properties":{"fid":27,"full_id":"w356020076","osm_id":"356020076","osm_type":"way","building":"yes","shop":null,"man_made":null,"content":null,"tourism":null,"office":null,"addr:housenumber":null,"name":"XENO SUMMIT","building:levels":"8","addr:street":null,"addr:postcode":null,"addr:city":null,"elev_count":0.98331324271826603,"elev_mean":396.25832360821323,"elev_min":0.0,"elev_max":571.01251220703125,"ground_z":396.25832360821323,"z_source":"Copernicus_GLO30_DSM","floor_count":8,"floor_height_m":3.0,"building_height_m":24.0,"top_z":420.25832360821323,"z_quality":"CHECK_ELEVATION","base_z":396.25832360821323,"floor_z_min":396.25832360821323,"floor_z_max":399.25832360821323,"instance":3},"geometry":{"type":"MultiPolygon","coordinates":[[[[222721.012810971646104,1930833.641098179155961,9.0],[222755.34201625053538,1930850.359555477509275,9.0],[222765.664459125837311,1930829.420482743997127,9.0],[222731.335232505225576,1930812.702004574472085,9.0],[222721.012810971646104,1930833.641098179155961,9.0]]]]}},
{"type":"Feature","properties":{"fid":27,"full_id":"w356020076","osm_id":"356020076","osm_type":"way","building":"yes","shop":null,"man_made":null,"content":null,"tourism":null,"office":null,"addr:housenumber":null,"name":"XENO SUMMIT","building:levels":"8","addr:street":null,"addr:postcode":null,"addr:city":null,"elev_count":0.98331324271826603,"elev_mean":396.25832360821323,"elev_min":0.0,"elev_max":571.01251220703125,"ground_z":396.25832360821323,"z_source":"Copernicus_GLO30_DSM","floor_count":8,"floor_height_m":3.0,"building_height_m":24.0,"top_z":420.25832360821323,"z_quality":"CHECK_ELEVATION","base_z":396.25832360821323,"floor_z_min":396.25832360821323,"floor_z_max":399.25832360821323,"instance":4},"geometry":{"type":"MultiPolygon","coordinates":[[[[222721.012810971646104,1930833.641098179155961,12.0],[222755.34201625053538,1930850.359555477509275,12.0],[222765.664459125837311,1930829.420482743997127,12.0],[222731.335232505225576,1930812.702004574472085,12.0],[222721.012810971646104,1930833.641098179155961,12.0]]]]}},
{"type":"Feature","properties":{"fid":27,"full_id":"w356020076","osm_id":"356020076","osm_type":"way","building":"yes","shop":null,"man_made":null,"content":null,"tourism":null,"office":null,"addr:housenumber":null,"name":"XENO SUMMIT","building:levels":"8","addr:street":null,"addr:postcode":null,"addr:city":null,"elev_count":0.98331324271826603,"elev_mean":396.25832360821323,"elev_min":0.0,"elev_max":571.01251220703125,"ground_z":396.25832360821323,"z_source":"Copernicus_GLO30_DSM","floor_count":8,"floor_height_m":3.0,"building_height_m":24.0,"top_z":420.25832360821323,"z_quality":"CHECK_ELEVATION","base_z":396.25832360821323,"floor_z_min":396.25832360821323,"floor_z_max":399.25832360821323,"instance":5},"geometry":{"type":"MultiPolygon","coordinates":[[[[222721.012810971646104,1930833.641098179155961,15.0],[222755.34201625053538,1930850.359555477509275,15.0],[222765.664459125837311,1930829.420482743997127,15.0],[222731.335232505225576,1930812.702004574472085,15.0],[222721.012810971646104,1930833.641098179155961,15.0]]]]}},
{"type":"Feature","properties":{"fid":27,"full_id":"w356020076","osm_id":"356020076","osm_type":"way","building":"yes","shop":null,"man_made":null,"content":null,"tourism":null,"office":null,"addr:housenumber":null,"name":"XENO SUMMIT","building:levels":"8","addr:street":null,"addr:postcode":null,"addr:city":null,"elev_count":0.98331324271826603,"elev_mean":396.25832360821323,"elev_min":0.0,"elev_max":571.01251220703125,"ground_z":396.25832360821323,"z_source":"Copernicus_GLO30_DSM","floor_count":8,"floor_height_m":3.0,"building_height_m":24.0,"top_z":420.25832360821323,"z_quality":"CHECK_ELEVATION","base_z":396.25832360821323,"floor_z_min":396.25832360821323,"floor_z_max":399.25832360821323,"instance":6},"geometry":{"type":"MultiPolygon","coordinates":[[[[222721.012810971646104,1930833.641098179155961,18.0],[222755.34201625053538,1930850.359555477509275,18.0],[222765.664459125837311,1930829.420482743997127,18.0],[222731.335232505225576,1930812.702004574472085,18.0],[222721.012810971646104,1930833.641098179155961,18.0]]]]}},
{"type":"Feature","properties":{"fid":27,"full_id":"w356020076","osm_id":"356020076","osm_type":"way","building":"yes","shop":null,"man_made":null,"content":null,"tourism":null,"office":null,"addr:housenumber":null,"name":"XENO SUMMIT","building:levels":"8","addr:street":null,"addr:postcode":null,"addr:city":null,"elev_count":0.98331324271826603,"elev_mean":396.25832360821323,"elev_min":0.0,"elev_max":571.01251220703125,"ground_z":396.25832360821323,"z_source":"Copernicus_GLO30_DSM","floor_count":8,"floor_height_m":3.0,"building_height_m":24.0,"top_z":420.25832360821323,"z_quality":"CHECK_ELEVATION","base_z":396.25832360821323,"floor_z_min":396.25832360821323,"floor_z_max":399.25832360821323,"instance":7},"geometry":{"type":"MultiPolygon","coordinates":[[[[222721.012810971646104,1930833.641098179155961,21.0],[222755.34201625053538,1930850.359555477509275,21.0],[222765.664459125837311,1930829.420482743997127,21.0],[222731.335232505225576,1930812.702004574472085,21.0],[222721.012810971646104,1930833.641098179155961,21.0]]]]}},
{"type":"Feature","properties":{"fid":27,"full_id":"w356020076","osm_id":"356020076","osm_type":"way","building":"yes","shop":null,"man_made":null,"content":null,"tourism":null,"office":null,"addr:housenumber":null,"name":"XENO SUMMIT","building:levels":"8","addr:street":null,"addr:postcode":null,"addr:city":null,"elev_count":0.98331324271826603,"elev_mean":396.25832360821323,"elev_min":0.0,"elev_max":571.01251220703125,"ground_z":396.25832360821323,"z_source":"Copernicus_GLO30_DSM","floor_count":8,"floor_height_m":3.0,"building_height_m":24.0,"top_z":420.25832360821323,"z_quality":"CHECK_ELEVATION","base_z":396.25832360821323,"floor_z_min":396.25832360821323,"floor_z_max":399.25832360821323,"instance":8},"geometry":{"type":"MultiPolygon","coordinates":[[[[222721.012810971646104,1930833.641098179155961,24.0],[222755.34201625053538,1930850.359555477509275,24.0],[222765.664459125837311,1930829.420482743997127,24.0],[222731.335232505225576,1930812.702004574472085,24.0],[222721.012810971646104,1930833.641098179155961,24.0]]]]}},
{"type":"Feature","properties":{"fid":75,"full_id":"w356020272","osm_id":"356020272","osm_type":"way","building":"yes","shop":null,"man_made":null,"content":null,"tourism":null,"office":null,"addr:housenumber":null,"name":null,"building:levels":"5","addr:street":null,"addr:postcode":null,"addr:city":null,"elev_count":0.39469453449606295,"elev_mean":574.02437581716617,"elev_min":573.72119140625,"elev_max":575.05474853515625,"ground_z":574.02437581716617,"z_source":"Copernicus_GLO30_DSM","floor_count":5,"floor_height_m":3.0,"building_height_m":15.0,"top_z":589.02437581716617,"z_quality":"DSM_OK","base_z":574.02437581716617,"floor_z_min":574.02437581716617,"floor_z_max":577.02437581716617,"instance":0},"geometry":{"type":"MultiPolygon","coordinates":[[[[222930.671952520264313,1930962.474548472790048,0.0],[222956.677857730479445,1930963.647606388898566,0.0],[222957.308818813238759,1930949.917649210896343,0.0],[222931.302896319888532,1930948.744588064728305,0.0],[222930.671952520264313,1930962.474548472790048,0.0]]]]}},
{"type":"Feature","properties":{"fid":75,"full_id":"w356020272","osm_id":"356020272","osm_type":"way","building":"yes","shop":null,"man_made":null,"content":null,"tourism":null,"office":null,"addr:housenumber":null,"name":null,"building:levels":"5","addr:street":null,"addr:postcode":null,"addr:city":null,"elev_count":0.39469453449606295,"elev_mean":574.02437581716617,"elev_min":573.72119140625,"elev_max":575.05474853515625,"ground_z":574.02437581716617,"z_source":"Copernicus_GLO30_DSM","floor_count":5,"floor_height_m":3.0,"building_height_m":15.0,"top_z":589.02437581716617,"z_quality":"DSM_OK","base_z":574.02437581716617,"floor_z_min":574.02437581716617,"floor_z_max":577.02437581716617,"instance":1},"geometry":{"type":"MultiPolygon","coordinates":[[[[222930.671952520264313,1930962.474548472790048,3.0],[222956.677857730479445,1930963.647606388898566,3.0],[222957.308818813238759,1930949.917649210896343,3.0],[222931.302896319888532,1930948.744588064728305,3.0],[222930.671952520264313,1930962.474548472790048,3.0]]]]}},
{"type":"Feature","properties":{"fid":75,"full_id":"w356020272","osm_id":"356020272","osm_type":"way","building":"yes","shop":null,"man_made":null,"content":null,"tourism":null,"office":null,"addr:housenumber":null,"name":null,"building:levels":"5","addr:street":null,"addr:postcode":null,"addr:city":null,"elev_count":0.39469453449606295,"elev_mean":574.02437581716617,"elev_min":573.72119140625,"elev_max":575.05474853515625,"ground_z":574.02437581716617,"z_source":"Copernicus_GLO30_DSM","floor_count":5,"floor_height_m":3.0,"building_height_m":15.0,"top_z":589.02437581716617,"z_quality":"DSM_OK","base_z":574.02437581716617,"floor_z_min":574.02437581716617,"floor_z_max":577.02437581716617,"instance":2},"geometry":{"type":"MultiPolygon","coordinates":[[[[222930.671952520264313,1930962.474548472790048,6.0],[222956.677857730479445,1930963.647606388898566,6.0],[222957.308818813238759,1930949.917649210896343,6.0],[222931.302896319888532,1930948.744588064728305,6.0],[222930.671952520264313,1930962.474548472790048,6.0]]]]}},
{"type":"Feature","properties":{"fid":75,"full_id":"w356020272","osm_id":"356020272","osm_type":"way","building":"yes","shop":null,"man_made":null,"content":null,"tourism":null,"office":null,"addr:housenumber":null,"name":null,"building:levels":"5","addr:street":null,"addr:postcode":null,"addr:city":null,"elev_count":0.39469453449606295,"elev_mean":574.02437581716617,"elev_min":573.72119140625,"elev_max":575.05474853515625,"ground_z":574.02437581716617,"z_source":"Copernicus_GLO30_DSM","floor_count":5,"floor_height_m":3.0,"building_height_m":15.0,"top_z":589.02437581716617,"z_quality":"DSM_OK","base_z":574.02437581716617,"floor_z_min":574.02437581716617,"floor_z_max":577.02437581716617,"instance":3},"geometry":{"type":"MultiPolygon","coordinates":[[[[222930.671952520264313,1930962.474548472790048,9.0],[222956.677857730479445,1930963.647606388898566,9.0],[222957.308818813238759,1930949.917649210896343,9.0],[222931.302896319888532,1930948.744588064728305,9.0],[222930.671952520264313,1930962.474548472790048,9.0]]]]}},
{"type":"Feature","properties":{"fid":75,"full_id":"w356020272","osm_id":"356020272","osm_type":"way","building":"yes","shop":null,"man_made":null,"content":null,"tourism":null,"office":null,"addr:housenumber":null,"name":null,"building:levels":"5","addr:street":null,"addr:postcode":null,"addr:city":null,"elev_count":0.39469453449606295,"elev_mean":574.02437581716617,"elev_min":573.72119140625,"elev_max":575.05474853515625,"ground_z":574.02437581716617,"z_source":"Copernicus_GLO30_DSM","floor_count":5,"floor_height_m":3.0,"building_height_m":15.0,"top_z":589.02437581716617,"z_quality":"DSM_OK","base_z":574.02437581716617,"floor_z_min":574.02437581716617,"floor_z_max":577.02437581716617,"instance":4},"geometry":{"type":"MultiPolygon","coordinates":[[[[222930.671952520264313,1930962.474548472790048,12.0],[222956.677857730479445,1930963.647606388898566,12.0],[222957.308818813238759,1930949.917649210896343,12.0],[222931.302896319888532,1930948.744588064728305,12.0],[222930.671952520264313,1930962.474548472790048,12.0]]]]}},
{"type":"Feature","properties":{"fid":75,"full_id":"w356020272","osm_id":"356020272","osm_type":"way","building":"yes","shop":null,"man_made":null,"content":null,"tourism":null,"office":null,"addr:housenumber":null,"name":null,"building:levels":"5","addr:street":null,"addr:postcode":null,"addr:city":null,"elev_count":0.39469453449606295,"elev_mean":574.02437581716617,"elev_min":573.72119140625,"elev_max":575.05474853515625,"ground_z":574.02437581716617,"z_source":"Copernicus_GLO30_DSM","floor_count":5,"floor_height_m":3.0,"building_height_m":15.0,"top_z":589.02437581716617,"z_quality":"DSM_OK","base_z":574.02437581716617,"floor_z_min":574.02437581716617,"floor_z_max":577.02437581716617,"instance":5},"geometry":{"type":"MultiPolygon","coordinates":[[[[222930.671952520264313,1930962.474548472790048,15.0],[222956.677857730479445,1930963.647606388898566,15.0],[222957.308818813238759,1930949.917649210896343,15.0],[222931.302896319888532,1930948.744588064728305,15.0],[222930.671952520264313,1930962.474548472790048,15.0]]]]}},
{"type":"Feature","properties":{"fid":230,"full_id":"w561429505","osm_id":"561429505","osm_type":"way","building":"residential","shop":null,"man_made":null,"content":null,"tourism":null,"office":null,"addr:housenumber":null,"name":"Sahiti's Ram kuteer","building:levels":"1","addr:street":"Jay hindi enclave road","addr:postcode":"500081","addr:city":"Hyderabad","elev_count":0.30272835749809601,"elev_mean":571.79171740279969,"elev_min":571.66949462890625,"elev_max":573.87506103515625,"ground_z":571.79171740279969,"z_source":"Copernicus_GLO30_DSM","floor_count":1,"floor_height_m":3.0,"building_height_m":3.0,"top_z":574.79171740279969,"z_quality":"DSM_OK","base_z":571.79171740279969,"floor_z_min":571.79171740279969,"floor_z_max":574.79171740279969,"instance":0},"geometry":{"type":"MultiPolygon","coordinates":[[[[222698.433994908758905,1930881.005503219552338,0.0],[222703.992375526751857,1930870.04323584260419,0.0],[222723.953851531492546,1930880.047539063030854,0.0],[222718.395464613568038,1930891.009799958439544,0.0],[222698.433994908758905,1930881.005503219552338,0.0]]]]}},
{"type":"Feature","properties":{"fid":230,"full_id":"w561429505","osm_id":"561429505","osm_type":"way","building":"residential","shop":null,"man_made":null,"content":null,"tourism":null,"office":null,"addr:housenumber":null,"name":"Sahiti's Ram kuteer","building:levels":"1","addr:street":"Jay hindi enclave road","addr:postcode":"500081","addr:city":"Hyderabad","elev_count":0.30272835749809601,"elev_mean":571.79171740279969,"elev_min":571.66949462890625,"elev_max":573.87506103515625,"ground_z":571.79171740279969,"z_source":"Copernicus_GLO30_DSM","floor_count":1,"floor_height_m":3.0,"building_height_m":3.0,"top_z":574.79171740279969,"z_quality":"DSM_OK","base_z":571.79171740279969,"floor_z_min":571.79171740279969,"floor_z_max":574.79171740279969,"instance":1},"geometry":{"type":"MultiPolygon","coordinates":[[[[222698.433994908758905,1930881.005503219552338,3.0],[222703.992375526751857,1930870.04323584260419,3.0],[222723.953851531492546,1930880.047539063030854,3.0],[222718.395464613568038,1930891.009799958439544,3.0],[222698.433994908758905,1930881.005503219552338,3.0]]]]}},
{"type":"Feature","properties":{"fid":231,"full_id":"w568255056","osm_id":"568255056","osm_type":"way","building":"yes","shop":null,"man_made":null,"content":null,"tourism":null,"office":null,"addr:housenumber":null,"name":"Sri Srinivasa Men's PG","building:levels":"5","addr:street":null,"addr:postcode":null,"addr:city":null,"elev_count":0.16199400328061234,"elev_mean":571.22943115234375,"elev_min":571.22943115234375,"elev_max":571.22943115234375,"ground_z":571.22943115234375,"z_source":"Copernicus_GLO30_DSM","floor_count":5,"floor_height_m":3.0,"building_height_m":15.0,"top_z":586.22943115234375,"z_quality":"DSM_OK","base_z":571.22943115234375,"floor_z_min":571.22943115234375,"floor_z_max":574.22943115234375,"instance":0},"geometry":{"type":"MultiPolygon","coordinates":[[[[222957.551994811801706,1930905.461177620571107,0.0],[222965.975909559288993,1930905.833401667885482,0.0],[222966.758607746858615,1930888.424631946720183,0.0],[222958.345313762081787,1930888.052261423319578,0.0],[222957.551994811801706,1930905.461177620571107,0.0]]]]}},
{"type":"Feature","properties":{"fid":231,"full_id":"w568255056","osm_id":"568255056","osm_type":"way","building":"yes","shop":null,"man_made":null,"content":null,"tourism":null,"office":null,"addr:housenumber":null,"name":"Sri Srinivasa Men's PG","building:levels":"5","addr:street":null,"addr:postcode":null,"addr:city":null,"elev_count":0.16199400328061234,"elev_mean":571.22943115234375,"elev_min":571.22943115234375,"elev_max":571.22943115234375,"ground_z":571.22943115234375,"z_source":"Copernicus_GLO30_DSM","floor_count":5,"floor_height_m":3.0,"building_height_m":15.0,"top_z":586.22943115234375,"z_quality":"DSM_OK","base_z":571.22943115234375,"floor_z_min":571.22943115234375,"floor_z_max":574.22943115234375,"instance":1},"geometry":{"type":"MultiPolygon","coordinates":[[[[222957.551994811801706,1930905.461177620571107,3.0],[222965.975909559288993,1930905.833401667885482,3.0],[222966.758607746858615,1930888.424631946720183,3.0],[222958.345313762081787,1930888.052261423319578,3.0],[222957.551994811801706,1930905.461177620571107,3.0]]]]}},
{"type":"Feature","properties":{"fid":231,"full_id":"w568255056","osm_id":"568255056","osm_type":"way","building":"yes","shop":null,"man_made":null,"content":null,"tourism":null,"office":null,"addr:housenumber":null,"name":"Sri Srinivasa Men's PG","building:levels":"5","addr:street":null,"addr:postcode":null,"addr:city":null,"elev_count":0.16199400328061234,"elev_mean":571.22943115234375,"elev_min":571.22943115234375,"elev_max":571.22943115234375,"ground_z":571.22943115234375,"z_source":"Copernicus_GLO30_DSM","floor_count":5,"floor_height_m":3.0,"building_height_m":15.0,"top_z":586.22943115234375,"z_quality":"DSM_OK","base_z":571.22943115234375,"floor_z_min":571.22943115234375,"floor_z_max":574.22943115234375,"instance":2},"geometry":{"type":"MultiPolygon","coordinates":[[[[222957.551994811801706,1930905.461177620571107,6.0],[222965.975909559288993,1930905.833401667885482,6.0],[222966.758607746858615,1930888.424631946720183,6.0],[222958.345313762081787,1930888.052261423319578,6.0],[222957.551994811801706,1930905.461177620571107,6.0]]]]}},
{"type":"Feature","properties":{"fid":231,"full_id":"w568255056","osm_id":"568255056","osm_type":"way","building":"yes","shop":null,"man_made":null,"content":null,"tourism":null,"office":null,"addr:housenumber":null,"name":"Sri Srinivasa Men's PG","building:levels":"5","addr:street":null,"addr:postcode":null,"addr:city":null,"elev_count":0.16199400328061234,"elev_mean":571.22943115234375,"elev_min":571.22943115234375,"elev_max":571.22943115234375,"ground_z":571.22943115234375,"z_source":"Copernicus_GLO30_DSM","floor_count":5,"floor_height_m":3.0,"building_height_m":15.0,"top_z":586.22943115234375,"z_quality":"DSM_OK","base_z":571.22943115234375,"floor_z_min":571.22943115234375,"floor_z_max":574.22943115234375,"instance":3},"geometry":{"type":"MultiPolygon","coordinates":[[[[222957.551994811801706,1930905.461177620571107,9.0],[222965.975909559288993,1930905.833401667885482,9.0],[222966.758607746858615,1930888.424631946720183,9.0],[222958.345313762081787,1930888.052261423319578,9.0],[222957.551994811801706,1930905.461177620571107,9.0]]]]}},
{"type":"Feature","properties":{"fid":231,"full_id":"w568255056","osm_id":"568255056","osm_type":"way","building":"yes","shop":null,"man_made":null,"content":null,"tourism":null,"office":null,"addr:housenumber":null,"name":"Sri Srinivasa Men's PG","building:levels":"5","addr:street":null,"addr:postcode":null,"addr:city":null,"elev_count":0.16199400328061234,"elev_mean":571.22943115234375,"elev_min":571.22943115234375,"elev_max":571.22943115234375,"ground_z":571.22943115234375,"z_source":"Copernicus_GLO30_DSM","floor_count":5,"floor_height_m":3.0,"building_height_m":15.0,"top_z":586.22943115234375,"z_quality":"DSM_OK","base_z":571.22943115234375,"floor_z_min":571.22943115234375,"floor_z_max":574.22943115234375,"instance":4},"geometry":{"type":"MultiPolygon","coordinates":[[[[222957.551994811801706,1930905.461177620571107,12.0],[222965.975909559288993,1930905.833401667885482,12.0],[222966.758607746858615,1930888.424631946720183,12.0],[222958.345313762081787,1930888.052261423319578,12.0],[222957.551994811801706,1930905.461177620571107,12.0]]]]}},
{"type":"Feature","properties":{"fid":231,"full_id":"w568255056","osm_id":"568255056","osm_type":"way","building":"yes","shop":null,"man_made":null,"content":null,"tourism":null,"office":null,"addr:housenumber":null,"name":"Sri Srinivasa Men's PG","building:levels":"5","addr:street":null,"addr:postcode":null,"addr:city":null,"elev_count":0.16199400328061234,"elev_mean":571.22943115234375,"elev_min":571.22943115234375,"elev_max":571.22943115234375,"ground_z":571.22943115234375,"z_source":"Copernicus_GLO30_DSM","floor_count":5,"floor_height_m":3.0,"building_height_m":15.0,"top_z":586.22943115234375,"z_quality":"DSM_OK","base_z":571.22943115234375,"floor_z_min":571.22943115234375,"floor_z_max":574.22943115234375,"instance":5},"geometry":{"type":"MultiPolygon","coordinates":[[[[222957.551994811801706,1930905.461177620571107,15.0],[222965.975909559288993,1930905.833401667885482,15.0],[222966.758607746858615,1930888.424631946720183,15.0],[222958.345313762081787,1930888.052261423319578,15.0],[222957.551994811801706,1930905.461177620571107,15.0]]]]}}
]
}
