{
"type": "FeatureCollection",
"name": "Hyderabad_Buildings_500m_FINAL",
"crs": { "type": "name", "properties": { "name": "urn:ogc:def:crs:EPSG::32644" } },
"features": [
{"type":"Feature","properties":{"fid":1357,"full_id":"w356020013","osm_id":"356020013","osm_type":"way","building":"yes","community_centre":null,"levels":null,"diet:lactose_free":null,"diet:dairy":null,"diet:non-vegetarian":null,"image":null,"substation":null,"power":null,"building:apartments":null,"toilets:position":null,"toilets:handwashing":null,"lit":null,"fitness_centre":null,"atm":null,"grades":null,"shelter_type":null,"addr:suburb":null,"compressed_air":null,"check_date:compressed_air":null,"toilets:disposal":null,"male":null,"female":null,"residential":null,"landuse":null,"diplomatic":null,"building:flats":null,"public_transport":null,"bus":null,"material":null,"subway":null,"station":null,"network":null,"construction":null,"leisure":null,"microbrewery":null,"brewery":null,"bar":null,"air_conditioning":null,"guest_house":null,"roof:colour":null,"building:material":null,"payment:notes":null,"payment:coins":null,"internet_access:fee":null,"building:colour":null,"brand:wikipedia":null,"surface":null,"supervised":null,"fee":null,"access":null,"takeaway":null,"outdoor_seating":null,"loc_name":null,"diet:vegetarian":null,"diet:vegan":null,"golf":null,"location":null,"addr:country":null,"email":null,"short_name":null,"official_name":null,"government":null,"man_made":null,"content":null,"operator:type":null,"healthcare":null,"contact:phone":null,"addr:state":null,"addr:full":null,"toilets:access":null,"toilets":null,"payment:cash":null,"changing_table":null,"roof:shape":null,"building:use":null,"sport":null,"building:levels:underground":null,"addr:subdistrict":null,"addr:place":null,"addr:district":null,"addr:housename":null,"religion":null,"check_date":null,"branch":null,"brand:wikidata":null,"brand":null,"name:en":null,"opening_hours":null,"fast_food":null,"drive_through":null,"cuisine":null,"parking":null,"not:brand:wikidata":null,"wikipedia":null,"wikidata":null,"office":null,"level":null,"name:ml":null,"name:fa":null,"description":null,"layer":null,"addr:housenumber":null,"height":null,"shop":null,"nohousenumber":null,"website":null,"phone":null,"addr:postcode":"500081","amenity":null,"addr:street":"sillicon valley","addr:city":"Hyderabad","tourism":null,"smoking":null,"rooms":null,"operator":null,"internet_access:ssid":null,"internet_access":null,"name:te":null,"alt_name":null,"wheelchair":null,"type":null,"name":"Pamidi Towers","building:levels":"6"},"geometry":{"type":"MultiPolygon","coordinates":[[[[222682.356,1930919.844783111009747],[222711.288453628774732,1930934.873564005829394],[222720.851244697230868,1930916.691325609339401],[222682.356,1930896.695201829774305],[222682.356,1930919.844783111009747]]]]}},
{"type":"Feature","properties":{"fid":1369,"full_id":"w356020046","osm_id":"356020046","osm_type":"way","building":"yes","community_centre":null,"levels":null,"diet:lactose_free":null,"diet:dairy":null,"diet:non-vegetarian":null,"image":null,"substation":null,"power":null,"building:apartments":null,"toilets:position":null,"toilets:handwashing":null,"lit":null,"fitness_centre":null,"atm":null,"grades":null,"shelter_type":null,"addr:suburb":null,"compressed_air":null,"check_date:compressed_air":null,"toilets:disposal":null,"male":null,"female":null,"residential":null,"landuse":null,"diplomatic":null,"building:flats":null,"public_transport":null,"bus":null,"material":null,"subway":null,"station":null,"network":null,"construction":null,"leisure":null,"microbrewery":null,"brewery":null,"bar":null,"air_conditioning":null,"guest_house":null,"roof:colour":null,"building:material":null,"payment:notes":null,"payment:coins":null,"internet_access:fee":null,"building:colour":null,"brand:wikipedia":null,"surface":null,"supervised":null,"fee":null,"access":null,"takeaway":null,"outdoor_seating":null,"loc_name":null,"diet:vegetarian":null,"diet:vegan":null,"golf":null,"location":null,"addr:country":null,"email":null,"short_name":null,"official_name":null,"government":null,"man_made":null,"content":null,"operator:type":null,"healthcare":null,"contact:phone":null,"addr:state":null,"addr:full":null,"toilets:access":null,"toilets":null,"payment:cash":null,"changing_table":null,"roof:shape":null,"building:use":null,"sport":null,"building:levels:underground":null,"addr:subdistrict":null,"addr:place":null,"addr:district":null,"addr:housename":null,"religion":null,"check_date":null,"branch":null,"brand:wikidata":null,"brand":null,"name:en":null,"opening_hours":null,"fast_food":null,"drive_through":null,"cuisine":null,"parking":null,"not:brand:wikidata":null,"wikipedia":null,"wikidata":null,"office":null,"level":null,"name:ml":null,"name:fa":null,"description":null,"layer":null,"addr:housenumber":null,"height":null,"shop":null,"nohousenumber":null,"website":null,"phone":null,"addr:postcode":null,"amenity":null,"addr:street":null,"addr:city":null,"tourism":null,"smoking":null,"rooms":null,"operator":null,"internet_access:ssid":null,"internet_access":null,"name:te":null,"alt_name":null,"wheelchair":null,"type":null,"name":null,"building:levels":null},"geometry":{"type":"MultiPolygon","coordinates":[[[[222682.356,1930976.697888664668426],[222699.768838861084078,1930985.641735166078433],[222714.694069250370376,1930956.942877676337957],[222682.356,1930940.317179595818743],[222682.356,1930976.697888664668426]]]]}},
{"type":"Feature","properties":{"fid":1370,"full_id":"w356020047","osm_id":"356020047","osm_type":"way","building":"yes","community_centre":null,"levels":null,"diet:lactose_free":null,"diet:dairy":null,"diet:non-vegetarian":null,"image":null,"substation":null,"power":null,"building:apartments":null,"toilets:position":null,"toilets:handwashing":null,"lit":null,"fitness_centre":null,"atm":null,"grades":null,"shelter_type":null,"addr:suburb":null,"compressed_air":null,"check_date:compressed_air":null,"toilets:disposal":null,"male":null,"female":null,"residential":null,"landuse":null,"diplomatic":null,"building:flats":null,"public_transport":null,"bus":null,"material":null,"subway":null,"station":null,"network":null,"construction":null,"leisure":null,"microbrewery":null,"brewery":null,"bar":null,"air_conditioning":null,"guest_house":null,"roof:colour":null,"building:material":null,"payment:notes":null,"payment:coins":null,"internet_access:fee":null,"building:colour":null,"brand:wikipedia":null,"surface":null,"supervised":null,"fee":null,"access":null,"takeaway":null,"outdoor_seating":null,"loc_name":null,"diet:vegetarian":null,"diet:vegan":null,"golf":null,"location":null,"addr:country":null,"email":null,"short_name":null,"official_name":null,"government":null,"man_made":null,"content":null,"operator:type":null,"healthcare":null,"contact:phone":null,"addr:state":null,"addr:full":null,"toilets:access":null,"toilets":null,"payment:cash":null,"changing_table":null,"roof:shape":null,"building:use":null,"sport":null,"building:levels:underground":null,"addr:subdistrict":null,"addr:place":null,"addr:district":null,"addr:housename":null,"religion":null,"check_date":null,"branch":null,"brand:wikidata":null,"brand":null,"name:en":null,"opening_hours":null,"fast_food":null,"drive_through":null,"cuisine":null,"parking":null,"not:brand:wikidata":null,"wikipedia":null,"wikidata":null,"office":null,"level":null,"name:ml":null,"name:fa":null,"description":null,"layer":null,"addr:housenumber":null,"height":null,"shop":null,"nohousenumber":null,"website":null,"phone":null,"addr:postcode":null,"amenity":null,"addr:street":null,"addr:city":null,"tourism":null,"smoking":null,"rooms":null,"operator":null,"internet_access:ssid":null,"internet_access":null,"name:te":null,"alt_name":null,"wheelchair":null,"type":null,"name":null,"building:levels":null},"geometry":{"type":"MultiPolygon","coordinates":[[[[222682.356,1931093.694036702159792],[222685.845935702032875,1931093.864329626783729],[222686.263778137858026,1931085.552703107707202],[222682.356,1931085.362021155888215],[222682.356,1931093.694036702159792]]]]}},
{"type":"Feature","properties":{"fid":1469,"full_id":"w356020264","osm_id":"356020264","osm_type":"way","building":"yes","community_centre":null,"levels":null,"diet:lactose_free":null,"diet:dairy":null,"diet:non-vegetarian":null,"image":null,"substation":null,"power":null,"building:apartments":null,"toilets:position":null,"toilets:handwashing":null,"lit":null,"fitness_centre":null,"atm":null,"grades":null,"shelter_type":null,"addr:suburb":null,"compressed_air":null,"check_date:compressed_air":null,"toilets:disposal":null,"male":null,"female":null,"residential":null,"landuse":null,"diplomatic":null,"building:flats":null,"public_transport":null,"bus":null,"material":null,"subway":null,"station":null,"network":null,"construction":null,"leisure":null,"microbrewery":null,"brewery":null,"bar":null,"air_conditioning":null,"guest_house":null,"roof:colour":null,"building:material":null,"payment:notes":null,"payment:coins":null,"internet_access:fee":null,"building:colour":null,"brand:wikipedia":null,"surface":null,"supervised":null,"fee":null,"access":null,"takeaway":null,"outdoor_seating":null,"loc_name":null,"diet:vegetarian":null,"diet:vegan":null,"golf":null,"location":null,"addr:country":null,"email":null,"short_name":null,"official_name":null,"government":null,"man_made":null,"content":null,"operator:type":null,"healthcare":null,"contact:phone":null,"addr:state":null,"addr:full":null,"toilets:access":null,"toilets":null,"payment:cash":null,"changing_table":null,"roof:shape":null,"building:use":null,"sport":null,"building:levels:underground":null,"addr:subdistrict":null,"addr:place":null,"addr:district":null,"addr:housename":null,"religion":null,"check_date":null,"branch":null,"brand:wikidata":null,"brand":null,"name:en":null,"opening_hours":null,"fast_food":null,"drive_through":null,"cuisine":null,"parking":null,"not:brand:wikidata":null,"wikipedia":null,"wikidata":null,"office":null,"level":null,"name:ml":null,"name:fa":null,"description":null,"layer":null,"addr:housenumber":null,"height":null,"shop":null,"nohousenumber":null,"website":null,"phone":null,"addr:postcode":null,"amenity":null,"addr:street":null,"addr:city":null,"tourism":null,"smoking":null,"rooms":null,"operator":null,"internet_access:ssid":null,"internet_access":null,"name:te":null,"alt_name":null,"wheelchair":null,"type":null,"name":null,"building:levels":null},"geometry":{"type":"MultiPolygon","coordinates":[[[[222682.356,1931081.268169949529693],[222687.078180495882407,1931081.366462042089552],[222687.273931038973387,1931072.36017571343109],[222682.356,1931072.253570547327399],[222682.356,1931081.268169949529693]]]]}},
{"type":"Feature","properties":{"fid":1938,"full_id":"w356182654","osm_id":"356182654","osm_type":"way","building":"yes","community_centre":null,"levels":null,"diet:lactose_free":null,"diet:dairy":null,"diet:non-vegetarian":null,"image":null,"substation":null,"power":null,"building:apartments":null,"toilets:position":null,"toilets:handwashing":null,"lit":null,"fitness_centre":null,"atm":null,"grades":null,"shelter_type":null,"addr:suburb":null,"compressed_air":null,"check_date:compressed_air":null,"toilets:disposal":null,"male":null,"female":null,"residential":null,"landuse":null,"diplomatic":null,"building:flats":null,"public_transport":null,"bus":null,"material":null,"subway":null,"station":null,"network":null,"construction":null,"leisure":null,"microbrewery":null,"brewery":null,"bar":null,"air_conditioning":null,"guest_house":null,"roof:colour":null,"building:material":null,"payment:notes":null,"payment:coins":null,"internet_access:fee":null,"building:colour":null,"brand:wikipedia":null,"surface":null,"supervised":null,"fee":null,"access":null,"takeaway":null,"outdoor_seating":null,"loc_name":null,"diet:vegetarian":null,"diet:vegan":null,"golf":null,"location":null,"addr:country":null,"email":null,"short_name":null,"official_name":null,"government":null,"man_made":null,"content":null,"operator:type":null,"healthcare":null,"contact:phone":null,"addr:state":null,"addr:full":null,"toilets:access":null,"toilets":null,"payment:cash":null,"changing_table":null,"roof:shape":null,"building:use":null,"sport":null,"building:levels:underground":null,"addr:subdistrict":null,"addr:place":null,"addr:district":null,"addr:housename":null,"religion":null,"check_date":null,"branch":null,"brand:wikidata":null,"brand":null,"name:en":null,"opening_hours":null,"fast_food":null,"drive_through":null,"cuisine":null,"parking":null,"not:brand:wikidata":null,"wikipedia":null,"wikidata":null,"office":null,"level":null,"name:ml":null,"name:fa":null,"description":null,"layer":null,"addr:housenumber":null,"height":null,"shop":null,"nohousenumber":null,"website":null,"phone":null,"addr:postcode":null,"amenity":null,"addr:street":null,"addr:city":null,"tourism":null,"smoking":null,"rooms":null,"operator":null,"internet_access:ssid":null,"internet_access":null,"name:te":null,"alt_name":null,"wheelchair":null,"type":null,"name":null,"building:levels":null},"geometry":{"type":"MultiPolygon","coordinates":[[[[222698.095760925905779,1931291.379999999888241],[222698.019634362251963,1931281.411522924201563],[222682.356,1931281.530769783072174],[222682.356,1931291.379999999888241],[222698.095760925905779,1931291.379999999888241]]]]}},
{"type":"Feature","properties":{"fid":1946,"full_id":"w356182762","osm_id":"356182762","osm_type":"way","building":"yes","community_centre":null,"levels":null,"diet:lactose_free":null,"diet:dairy":null,"diet:non-vegetarian":null,"image":null,"substation":null,"power":null,"building:apartments":null,"toilets:position":null,"toilets:handwashing":null,"lit":null,"fitness_centre":null,"atm":null,"grades":null,"shelter_type":null,"addr:suburb":null,"compressed_air":null,"check_date:compressed_air":null,"toilets:disposal":null,"male":null,"female":null,"residential":null,"landuse":null,"diplomatic":null,"building:flats":null,"public_transport":null,"bus":null,"material":null,"subway":null,"station":null,"network":null,"construction":null,"leisure":null,"microbrewery":null,"brewery":null,"bar":null,"air_conditioning":null,"guest_house":null,"roof:colour":null,"building:material":null,"payment:notes":null,"payment:coins":null,"internet_access:fee":null,"building:colour":null,"brand:wikipedia":null,"surface":null,"supervised":null,"fee":null,"access":null,"takeaway":null,"outdoor_seating":null,"loc_name":null,"diet:vegetarian":null,"diet:vegan":null,"golf":null,"location":null,"addr:country":null,"email":null,"short_name":null,"official_name":null,"government":null,"man_made":null,"content":null,"operator:type":null,"healthcare":null,"contact:phone":null,"addr:state":null,"addr:full":null,"toilets:access":null,"toilets":null,"payment:cash":null,"changing_table":null,"roof:shape":null,"building:use":null,"sport":null,"building:levels:underground":null,"addr:subdistrict":null,"addr:place":null,"addr:district":null,"addr:housename":null,"religion":null,"check_date":null,"branch":null,"brand:wikidata":null,"brand":null,"name:en":null,"opening_hours":null,"fast_food":null,"drive_through":null,"cuisine":null,"parking":null,"not:brand:wikidata":null,"wikipedia":null,"wikidata":null,"office":null,"level":null,"name:ml":null,"name:fa":null,"description":null,"layer":null,"addr:housenumber":null,"height":null,"shop":null,"nohousenumber":null,"website":null,"phone":null,"addr:postcode":null,"amenity":null,"addr:street":null,"addr:city":null,"tourism":null,"smoking":null,"rooms":null,"operator":null,"internet_access:ssid":null,"internet_access":null,"name:te":null,"alt_name":null,"wheelchair":null,"type":null,"name":null,"building:levels":null},"geometry":{"type":"MultiPolygon","coordinates":[[[[222687.435149412485771,1931206.980219746707007],[222707.606342016719282,1931208.243772886227816],[222709.366305444331374,1931180.699451554566622],[222688.514154380594846,1931179.389830974396318],[222687.762472886010073,1931191.272028984501958],[222693.826634548371658,1931191.654240963282064],[222693.589496552420314,1931195.301010951865464],[222688.195488088822458,1931194.953933864599094],[222687.435149412485771,1931206.980219746707007]]]]}},
{"type":"Feature","properties":{"fid":1950,"full_id":"w356182808","osm_id":"356182808","osm_type":"way","building":"yes","community_centre":null,"levels":null,"diet:lactose_free":null,"diet:dairy":null,"diet:non-vegetarian":null,"image":null,"substation":null,"power":null,"building:apartments":null,"toilets:position":null,"toilets:handwashing":null,"lit":null,"fitness_centre":null,"atm":null,"grades":null,"shelter_type":null,"addr:suburb":null,"compressed_air":null,"check_date:compressed_air":null,"toilets:disposal":null,"male":null,"female":null,"residential":null,"landuse":null,"diplomatic":null,"building:flats":null,"public_transport":null,"bus":null,"material":null,"subway":null,"station":null,"network":null,"construction":null,"leisure":null,"microbrewery":null,"brewery":null,"bar":null,"air_conditioning":null,"guest_house":null,"roof:colour":null,"building:material":null,"payment:notes":null,"payment:coins":null,"internet_access:fee":null,"building:colour":null,"brand:wikipedia":null,"surface":null,"supervised":null,"fee":null,"access":null,"takeaway":null,"outdoor_seating":null,"loc_name":null,"diet:vegetarian":null,"diet:vegan":null,"golf":null,"location":null,"addr:country":null,"email":null,"short_name":null,"official_name":null,"government":null,"man_made":null,"content":null,"operator:type":null,"healthcare":null,"contact:phone":null,"addr:state":null,"addr:full":null,"toilets:access":null,"toilets":null,"payment:cash":null,"changing_table":null,"roof:shape":null,"building:use":null,"sport":null,"building:levels:underground":null,"addr:subdistrict":null,"addr:place":null,"addr:district":null,"addr:housename":null,"religion":null,"check_date":null,"branch":null,"brand:wikidata":null,"brand":null,"name:en":null,"opening_hours":null,"fast_food":null,"drive_through":null,"cuisine":null,"parking":null,"not:brand:wikidata":null,"wikipedia":null,"wikidata":null,"office":null,"level":null,"name:ml":null,"name:fa":null,"description":null,"layer":null,"addr:housenumber":null,"height":null,"shop":null,"nohousenumber":null,"website":null,"phone":null,"addr:postcode":null,"amenity":null,"addr:street":null,"addr:city":null,"tourism":null,"smoking":null,"rooms":null,"operator":null,"internet_access:ssid":null,"internet_access":null,"name:te":null,"alt_name":null,"wheelchair":null,"type":null,"name":null,"building:levels":null},"geometry":{"type":"MultiPolygon","coordinates":[[[[222687.5971429963829,1931235.15166601864621],[222698.342476267018355,1931235.835327137960121],[222698.876610315288417,1931227.477811698336154],[222688.131272730475757,1931226.794149689842016],[222687.5971429963829,1931235.15166601864621]]]]}},
{"type":"Feature","properties":{"fid":9621,"full_id":"w740707429","osm_id":"740707429","osm_type":"way","building":"yes","community_centre":null,"levels":null,"diet:lactose_free":null,"diet:dairy":null,"diet:non-vegetarian":null,"image":null,"substation":null,"power":null,"building:apartments":null,"toilets:position":null,"toilets:handwashing":null,"lit":null,"fitness_centre":null,"atm":null,"grades":null,"shelter_type":null,"addr:suburb":null,"compressed_air":null,"check_date:compressed_air":null,"toilets:disposal":null,"male":null,"female":null,"residential":null,"landuse":null,"diplomatic":null,"building:flats":null,"public_transport":null,"bus":null,"material":null,"subway":null,"station":null,"network":null,"construction":null,"leisure":null,"microbrewery":null,"brewery":null,"bar":null,"air_conditioning":null,"guest_house":null,"roof:colour":null,"building:material":null,"payment:notes":null,"payment:coins":null,"internet_access:fee":null,"building:colour":null,"brand:wikipedia":null,"surface":null,"supervised":null,"fee":null,"access":null,"takeaway":null,"outdoor_seating":null,"loc_name":null,"diet:vegetarian":null,"diet:vegan":null,"golf":null,"location":null,"addr:country":null,"email":null,"short_name":null,"official_name":null,"government":null,"man_made":null,"content":null,"operator:type":null,"healthcare":null,"contact:phone":null,"addr:state":null,"addr:full":null,"toilets:access":null,"toilets":null,"payment:cash":null,"changing_table":null,"roof:shape":null,"building:use":null,"sport":null,"building:levels:underground":null,"addr:subdistrict":null,"addr:place":null,"addr:district":null,"addr:housename":null,"religion":null,"check_date":null,"branch":null,"brand:wikidata":null,"brand":null,"name:en":null,"opening_hours":null,"fast_food":null,"drive_through":null,"cuisine":null,"parking":null,"not:brand:wikidata":null,"wikipedia":null,"wikidata":null,"office":null,"level":null,"name:ml":null,"name:fa":null,"description":null,"layer":null,"addr:housenumber":null,"height":null,"shop":null,"nohousenumber":null,"website":null,"phone":null,"addr:postcode":null,"amenity":null,"addr:street":null,"addr:city":null,"tourism":null,"smoking":null,"rooms":null,"operator":null,"internet_access:ssid":null,"internet_access":null,"name:te":null,"alt_name":null,"wheelchair":null,"type":null,"name":null,"building:levels":null},"geometry":{"type":"MultiPolygon","coordinates":[[[[222682.356,1931118.846819682279602],[222684.285722711181734,1931118.914148924639449],[222685.054636845947243,1931097.407931037480012],[222682.356,1931097.313773497473449],[222682.356,1931118.846819682279602]]]]}},
{"type":"Feature","properties":{"fid":9631,"full_id":"w742092835","osm_id":"742092835","osm_type":"way","building":"shed","community_centre":null,"levels":null,"diet:lactose_free":null,"diet:dairy":null,"diet:non-vegetarian":null,"image":null,"substation":null,"power":null,"building:apartments":null,"toilets:position":null,"toilets:handwashing":null,"lit":null,"fitness_centre":null,"atm":null,"grades":null,"shelter_type":null,"addr:suburb":null,"compressed_air":null,"check_date:compressed_air":null,"toilets:disposal":null,"male":null,"female":null,"residential":null,"landuse":null,"diplomatic":null,"building:flats":null,"public_transport":null,"bus":null,"material":null,"subway":null,"station":null,"network":null,"construction":null,"leisure":null,"microbrewery":null,"brewery":null,"bar":null,"air_conditioning":null,"guest_house":null,"roof:colour":null,"building:material":null,"payment:notes":null,"payment:coins":null,"internet_access:fee":null,"building:colour":null,"brand:wikipedia":null,"surface":null,"supervised":null,"fee":null,"access":null,"takeaway":null,"outdoor_seating":null,"loc_name":null,"diet:vegetarian":null,"diet:vegan":null,"golf":null,"location":null,"addr:country":null,"email":null,"short_name":null,"official_name":null,"government":null,"man_made":null,"content":null,"operator:type":null,"healthcare":null,"contact:phone":null,"addr:state":null,"addr:full":null,"toilets:access":null,"toilets":null,"payment:cash":null,"changing_table":null,"roof:shape":null,"building:use":null,"sport":null,"building:levels:underground":null,"addr:subdistrict":null,"addr:place":null,"addr:district":null,"addr:housename":null,"religion":null,"check_date":null,"branch":null,"brand:wikidata":null,"brand":null,"name:en":null,"opening_hours":null,"fast_food":null,"drive_through":null,"cuisine":null,"parking":null,"not:brand:wikidata":null,"wikipedia":null,"wikidata":null,"office":null,"level":null,"name:ml":null,"name:fa":null,"description":null,"layer":null,"addr:housenumber":null,"height":null,"shop":null,"nohousenumber":null,"website":null,"phone":null,"addr:postcode":null,"amenity":null,"addr:street":null,"addr:city":null,"tourism":null,"smoking":null,"rooms":null,"operator":null,"internet_access:ssid":null,"internet_access":null,"name:te":null,"alt_name":null,"wheelchair":null,"type":null,"name":null,"building:levels":null},"geometry":{"type":"MultiPolygon","coordinates":[[[[222682.356,1930994.234555289847776],[222683.235379941179417,1930994.672049054177478],[222686.060629246348981,1930989.062922282144427],[222682.356,1930987.219859467586502],[222682.356,1930994.234555289847776]]]]}},
{"type":"Feature","properties":{"fid":9658,"full_id":"w744820538","osm_id":"744820538","osm_type":"way","building":"yes","community_centre":null,"levels":null,"diet:lactose_free":null,"diet:dairy":null,"diet:non-vegetarian":null,"image":null,"substation":null,"power":null,"building:apartments":null,"toilets:position":null,"toilets:handwashing":null,"lit":null,"fitness_centre":null,"atm":null,"grades":null,"shelter_type":null,"addr:suburb":null,"compressed_air":null,"check_date:compressed_air":null,"toilets:disposal":null,"male":null,"female":null,"residential":null,"landuse":null,"diplomatic":null,"building:flats":null,"public_transport":null,"bus":null,"material":null,"subway":null,"station":null,"network":null,"construction":null,"leisure":null,"microbrewery":null,"brewery":null,"bar":null,"air_conditioning":null,"guest_house":null,"roof:colour":null,"building:material":null,"payment:notes":null,"payment:coins":null,"internet_access:fee":null,"building:colour":null,"brand:wikipedia":null,"surface":null,"supervised":null,"fee":null,"access":null,"takeaway":null,"outdoor_seating":null,"loc_name":null,"diet:vegetarian":null,"diet:vegan":null,"golf":null,"location":null,"addr:country":null,"email":null,"short_name":null,"official_name":null,"government":null,"man_made":null,"content":null,"operator:type":null,"healthcare":null,"contact:phone":null,"addr:state":null,"addr:full":null,"toilets:access":null,"toilets":null,"payment:cash":null,"changing_table":null,"roof:shape":null,"building:use":null,"sport":null,"building:levels:underground":null,"addr:subdistrict":null,"addr:place":null,"addr:district":null,"addr:housename":null,"religion":null,"check_date":null,"branch":null,"brand:wikidata":null,"brand":null,"name:en":null,"opening_hours":null,"fast_food":null,"drive_through":null,"cuisine":null,"parking":null,"not:brand:wikidata":null,"wikipedia":null,"wikidata":null,"office":null,"level":null,"name:ml":null,"name:fa":null,"description":null,"layer":null,"addr:housenumber":null,"height":null,"shop":null,"nohousenumber":null,"website":null,"phone":null,"addr:postcode":null,"amenity":null,"addr:street":null,"addr:city":null,"tourism":null,"smoking":null,"rooms":null,"operator":null,"internet_access:ssid":null,"internet_access":null,"name:te":null,"alt_name":null,"wheelchair":null,"type":null,"name":null,"building:levels":null},"geometry":{"type":"MultiPolygon","coordinates":[[[[222687.042576471401844,1931036.780807898845524],[222685.946759288548492,1931058.479760791640729],[222699.902535641740542,1931059.174913867376745],[222700.998216072912328,1931037.464891301933676],[222687.042576471401844,1931036.780807898845524]]]]}},
{"type":"Feature","properties":{"fid":9659,"full_id":"w744820540","osm_id":"744820540","osm_type":"way","building":"yes","community_centre":null,"levels":null,"diet:lactose_free":null,"diet:dairy":null,"diet:non-vegetarian":null,"image":null,"substation":null,"power":null,"building:apartments":null,"toilets:position":null,"toilets:handwashing":null,"lit":null,"fitness_centre":null,"atm":null,"grades":null,"shelter_type":null,"addr:suburb":null,"compressed_air":null,"check_date:compressed_air":null,"toilets:disposal":null,"male":null,"female":null,"residential":null,"landuse":null,"diplomatic":null,"building:flats":null,"public_transport":null,"bus":null,"material":null,"subway":null,"station":null,"network":null,"construction":null,"leisure":null,"microbrewery":null,"brewery":null,"bar":null,"air_conditioning":null,"guest_house":null,"roof:colour":null,"building:material":null,"payment:notes":null,"payment:coins":null,"internet_access:fee":null,"building:colour":null,"brand:wikipedia":null,"surface":null,"supervised":null,"fee":null,"access":null,"takeaway":null,"outdoor_seating":null,"loc_name":null,"diet:vegetarian":null,"diet:vegan":null,"golf":null,"location":null,"addr:country":null,"email":null,"short_name":null,"official_name":null,"government":null,"man_made":null,"content":null,"operator:type":null,"healthcare":null,"contact:phone":null,"addr:state":null,"addr:full":null,"toilets:access":null,"toilets":null,"payment:cash":null,"changing_table":null,"roof:shape":null,"building:use":null,"sport":null,"building:levels:underground":null,"addr:subdistrict":null,"addr:place":null,"addr:district":null,"addr:housename":null,"religion":null,"check_date":null,"branch":null,"brand:wikidata":null,"brand":null,"name:en":null,"opening_hours":null,"fast_food":null,"drive_through":null,"cuisine":null,"parking":null,"not:brand:wikidata":null,"wikipedia":null,"wikidata":null,"office":null,"level":null,"name:ml":null,"name:fa":null,"description":null,"layer":null,"addr:housenumber":null,"height":null,"shop":null,"nohousenumber":null,"website":null,"phone":null,"addr:postcode":null,"amenity":null,"addr:street":null,"addr:city":null,"tourism":null,"smoking":null,"rooms":null,"operator":null,"internet_access:ssid":null,"internet_access":null,"name:te":null,"alt_name":null,"wheelchair":null,"type":null,"name":null,"building:levels":null},"geometry":{"type":"MultiPolygon","coordinates":[[[[222682.356,1930814.507189130643383],[222684.276063441473525,1930815.770627503748983],[222687.650938831444364,1930810.707719215890393],[222691.630529937683605,1930813.333355381852016],[222694.745007206802256,1930808.661617608508095],[222686.099429648485966,1930802.96567175956443],[222682.356,1930808.581174479098991],[222682.356,1930814.507189130643383]]]]}}
]
}
