{
"type": "FeatureCollection",
"name": "Hyderabad_Buildings_7_FINAL",
"crs": { "type": "name", "properties": { "name": "urn:ogc:def:crs:EPSG::32644" } },
"features": [
{"type":"Feature","properties":{"fid":4,"full_id":"w356020013","osm_id":"356020013","osm_type":"way","building":"yes","shop":null,"man_made":null,"content":null,"tourism":null,"office":null,"addr:housenumber":null,"name":"Pamidi Towers","building:levels":"6","addr:street":"sillicon valley","addr:postcode":"500081","addr:city":"Hyderabad","elev_count":0.5117115499001762,"elev_mean":575.23233473468281,"elev_min":573.87506103515625,"elev_max":576.11749267578125,"ground_z":575.23233473468281,"z_source":"Copernicus_GLO30_DSM","floor_count":6,"floor_height_m":3.0,"building_height_m":18.0,"top_z":593.23233473468281,"z_quality":"DSM_OK","base_z":575.23233473468281,"floor_z_min":575.23233473468281,"floor_z_max":578.23233473468281},"geometry":{"type":"MultiPolygon","coordinates":[[[[222682.356,1930919.844783111009747],[222711.288453628774732,1930934.873564005829394],[222720.851244697230868,1930916.691325609339401],[222682.356,1930896.695201829774305],[222682.356,1930919.844783111009747]]]]}},
{"type":"Feature","properties":{"fid":10,"full_id":"w356020035","osm_id":"356020035","osm_type":"way","building":"yes","shop":null,"man_made":null,"content":null,"tourism":null,"office":null,"addr:housenumber":null,"name":"Aishwarya residency","building:levels":"5","addr:street":null,"addr:postcode":null,"addr:city":null,"elev_count":0.30476008526472737,"elev_mean":577.31622314453125,"elev_min":577.31622314453125,"elev_max":577.31622314453125,"ground_z":577.31622314453125,"z_source":"Copernicus_GLO30_DSM","floor_count":5,"floor_height_m":3.0,"building_height_m":15.0,"top_z":592.31622314453125,"z_quality":"DSM_OK","base_z":577.31622314453125,"floor_z_min":577.31622314453125,"floor_z_max":580.31622314453125},"geometry":{"type":"MultiPolygon","coordinates":[[[[222694.585568667273037,1931118.108844381757081],[222716.01461806113366,1931118.070572946686298],[222715.995587780198548,1931104.238721636589617],[222694.566523790766951,1931104.276991061866283],[222694.585568667273037,1931118.108844381757081]]]]}},
{"type":"Feature","properties":{"fid":20,"full_id":"w356020060","osm_id":"356020060","osm_type":"way","building":"yes","shop":null,"man_made":null,"content":null,"tourism":null,"office":null,"addr:housenumber":"220","name":null,"building:levels":"5","addr:street":"Jai Hind Gandhi Road","addr:postcode":null,"addr:city":null,"elev_count":0.26015232253220177,"elev_mean":576.27474036824322,"elev_min":575.7928466796875,"elev_max":577.31622314453125,"ground_z":576.27474036824322,"z_source":"Copernicus_GLO30_DSM","floor_count":5,"floor_height_m":3.0,"building_height_m":15.0,"top_z":591.27474036824322,"z_quality":"DSM_OK","base_z":576.27474036824322,"floor_z_min":576.27474036824322,"floor_z_max":579.27474036824322},"geometry":{"type":"MultiPolygon","coordinates":[[[[222695.249214429757558,1931102.11919398792088],[222715.668036989227403,1931102.050439174054191],[222715.631171962828375,1931090.023983303224668],[222695.212488693243358,1931090.103808953426778],[222695.249214429757558,1931102.11919398792088]]]]}},
{"type":"Feature","properties":{"fid":27,"full_id":"w356020076","osm_id":"356020076","osm_type":"way","building":"yes","shop":null,"man_made":null,"content":null,"tourism":null,"office":null,"addr:housenumber":null,"name":"XENO SUMMIT","building:levels":"8","addr:street":null,"addr:postcode":null,"addr:city":null,"elev_count":0.98331324271826603,"elev_mean":396.25832360821323,"elev_min":0.0,"elev_max":571.01251220703125,"ground_z":396.25832360821323,"z_source":"Copernicus_GLO30_DSM","floor_count":8,"floor_height_m":3.0,"building_height_m":24.0,"top_z":420.25832360821323,"z_quality":"CHECK_ELEVATION","base_z":396.25832360821323,"floor_z_min":396.25832360821323,"floor_z_max":399.25832360821323},"geometry":{"type":"MultiPolygon","coordinates":[[[[222721.012810971646104,1930833.641098179155961],[222755.34201625053538,1930850.359555477509275],[222765.664459125837311,1930829.420482743997127],[222731.335232505225576,1930812.702004574472085],[222721.012810971646104,1930833.641098179155961]]]]}},
{"type":"Feature","properties":{"fid":75,"full_id":"w356020272","osm_id":"356020272","osm_type":"way","building":"yes","shop":null,"man_made":null,"content":null,"tourism":null,"office":null,"addr:housenumber":null,"name":null,"building:levels":"5","addr:street":null,"addr:postcode":null,"addr:city":null,"elev_count":0.39469453449606295,"elev_mean":574.02437581716617,"elev_min":573.72119140625,"elev_max":575.05474853515625,"ground_z":574.02437581716617,"z_source":"Copernicus_GLO30_DSM","floor_count":5,"floor_height_m":3.0,"building_height_m":15.0,"top_z":589.02437581716617,"z_quality":"DSM_OK","base_z":574.02437581716617,"floor_z_min":574.02437581716617,"floor_z_max":577.02437581716617},"geometry":{"type":"MultiPolygon","coordinates":[[[[222930.671952520264313,1930962.474548472790048],[222956.677857730479445,1930963.647606388898566],[222957.308818813238759,1930949.917649210896343],[222931.302896319888532,1930948.744588064728305],[222930.671952520264313,1930962.474548472790048]]]]}},
{"type":"Feature","properties":{"fid":230,"full_id":"w561429505","osm_id":"561429505","osm_type":"way","building":"residential","shop":null,"man_made":null,"content":null,"tourism":null,"office":null,"addr:housenumber":null,"name":"Sahiti's Ram kuteer","building:levels":"1","addr:street":"Jay hindi enclave road","addr:postcode":"500081","addr:city":"Hyderabad","elev_count":0.30272835749809601,"elev_mean":571.79171740279969,"elev_min":571.66949462890625,"elev_max":573.87506103515625,"ground_z":571.79171740279969,"z_source":"Copernicus_GLO30_DSM","floor_count":1,"floor_height_m":3.0,"building_height_m":3.0,"top_z":574.79171740279969,"z_quality":"DSM_OK","base_z":571.79171740279969,"floor_z_min":571.79171740279969,"floor_z_max":574.79171740279969},"geometry":{"type":"MultiPolygon","coordinates":[[[[222698.433994908758905,1930881.005503219552338],[222703.992375526751857,1930870.04323584260419],[222723.953851531492546,1930880.047539063030854],[222718.395464613568038,1930891.009799958439544],[222698.433994908758905,1930881.005503219552338]]]]}},
{"type":"Feature","properties":{"fid":231,"full_id":"w568255056","osm_id":"568255056","osm_type":"way","building":"yes","shop":null,"man_made":null,"content":null,"tourism":null,"office":null,"addr:housenumber":null,"name":"Sri Srinivasa Men's PG","building:levels":"5","addr:street":null,"addr:postcode":null,"addr:city":null,"elev_count":0.16199400328061234,"elev_mean":571.22943115234375,"elev_min":571.22943115234375,"elev_max":571.22943115234375,"ground_z":571.22943115234375,"z_source":"Copernicus_GLO30_DSM","floor_count":5,"floor_height_m":3.0,"building_height_m":15.0,"top_z":586.22943115234375,"z_quality":"DSM_OK","base_z":571.22943115234375,"floor_z_min":571.22943115234375,"floor_z_max":574.22943115234375},"geometry":{"type":"MultiPolygon","coordinates":[[[[222957.551994811801706,1930905.461177620571107],[222965.975909559288993,1930905.833401667885482],[222966.758607746858615,1930888.424631946720183],[222958.345313762081787,1930888.052261423319578],[222957.551994811801706,1930905.461177620571107]]]]}}
]
}
