{
  "type": "FeatureCollection",
  "crs": {
    "type": "name",
    "properties": {
      "name": "EPSG:32644"
    }
  },
  "features": [
    {
      "type": "Feature",
      "properties": {
        "ulpin_2d": "27A8B9C3D4E5F6",
        "survey_number": "SYN-PLOT-42/5",
        "district": "Hyderabad-Synthetic",
        "state": "Telangana-Synthetic",
        "village_code": "SYN-VIL-001",
        "area_sqm": 600.00
      },
      "geometry": {
        "type": "Polygon",
        "coordinates": [
          [
            [219400.0, 1932500.0],
            [219430.0, 1932500.0],
            [219430.0, 1932520.0],
            [219400.0, 1932520.0],
            [219400.0, 1932500.0]
          ]
        ]
      }
    }
  ]
}
